 '47P/Ashbrook-Jackson': '47P/Ashbrook-Jackson,e,13.0518,356.9881,357.8761,4.114484,0.1180949,0.31867864,110.6075,08/27.0/2011,2000,g  1.0,11.2\n',
 '48P/Johnson': '48P/Johnson,e,13.6623,117.2719,207.9537,3.638955,0.1419839,0.36764238,355.2728,08/27.0/2011,2000,g 10.0,6.0\n',
 '49P/Arend-Rigaux': '49P/Arend-Rigaux,e,19.0499,118.8779,332.7877,3.563190,0.1465365,0.60040683,352.2226,08/27.0/2011,2000,g 11.3,4.4\n',
 '59P/Kearns-Kwee': '59P/Kearns-Kwee,e,9.3371,312.9785,127.5649,4.490345,0.1035821,0.47596435,93.4234,08/27.0/2011,2000,g  7.0,6.0\n',
 '62P/Tsuchinshan': '62P/Tsuchinshan,e,9.7128,90.3079,30.2342,3.437255,0.1546630,0.59745829,8.9094,08/27.0/2011,2000,g  8.0,10.0\n',
 '65P/Gunn': '65P/Gunn,e,10.4011,68.1752,197.3916,3.600815,0.1442457,0.32092051,77.9893,08/27.0/2011,2000,g  5.0,6.0\n',
 '69P/Taylor': '69P/Taylor,e,22.0386,104.8821,343.4452,3.880515,0.1289348,0.41471691,5.2537,08/27.0/2011,2000,g  9.5,12.0\n',
 '71P/Clark': '71P/Clark,e,9.4810,59.6081,208.8324,3.126184,0.1783127,0.49860207,340.2217,08/27.0/2011,2000,g  9.8,6.0\n',
 '73P/Schwassmann-Wachmann': '73P/Schwassmann-Wachmann,e,11.3790,69.8448,198.8646,3.063589,0.1838055,0.69225966,350.6454,08/27.0/2011,2000,g 11.5,6.0\n',
 '74P/Smirnova-Chernykh': '74P/Smirnova-Chernykh,e,6.6502,77.0799,86.8149,4.168542,0.1158051,0.14725022,88.0602,08/27.0/2011,2000,g  5.0,6.0\n',
 '77P/Longmore': '77P/Longmore,e,24.3959,14.9138,197.0191,3.605318,0.1439755,0.35673658,112.3210,08/27.0/2011,2000,g  7.0,8.0\n',
 '78P/Gehrels': '78P/Gehrels,e,6.2550,210.5593,192.8289,3.737529,0.1364040,0.46263601,341.0380,08/27.0/2011,2000,g  5.5,8.0\n',
 '81P/Wild': '81P/Wild,e,3.2375,136.0957,41.7596,3.451897,0.1536800,0.53707793,84.5906,08/27.0/2011,2000,g  7.0,6.0\n',
 '82P/Gehrels': '82P/Gehrels,e,1.1262,239.4352,226.4342,4.143193,0.1168695,0.12309226,69.0879,08/27.0/2011,2000,g  5.0,8.0\n',
 '8P/Tuttle': '8P/Tuttle,e,55.0494,270.3580,207.4647,5.690708,0.0726030,0.81970638,94.9745,08/27.0/2011,2000,g  8.0,8.0\n',
 '91P/Russell': '91P/Russell,e,14.0757,247.8801,354.7608,3.896757,0.1281295,0.32878128,289.1943,08/27.0/2011,2000,g  7.5,6.0\n',
 '94P/Russell': '94P/Russell,e,6.1835,70.9116,92.7539,3.515251,0.1495442,0.36300874,77.0889,08/27.0/2011,2000,g  9.0,6.0\n',
 '97P/Metcalf-Brewington': '97P/Metcalf-Brewington,e,17.8858,185.2079,228.2094,4.802744,0.0936418,0.45935939,0.5617,08/27.0/2011,2000,g  5.5,6.0\n',
 '99P/Kowal': '99P/Kowal,e,4.3324,28.2047,174.5425,6.148847,0.0646418,0.22796321,108.1761,08/27.0/2011,2000,g  4.5,6.0\n',
 '9P/Tempel': '9P/Tempel,e,10.5224,68.9037,178.9484,3.124263,0.1784772,0.51650649,40.4448,08/27.0/2011,2000,g  5.5,10.0\n',
 'C/1995 O1 (Hale-Bopp)': 'C/1995 O1 (Hale-Bopp),e,89.4397,282.3793,130.5313,178.9199,0.0004118,0.99493492,0.0000,03/31.2852/1997,2000,g -2.0,4.0\n',
 'C/2002 VQ94 (LINEAR)': 'C/2002 VQ94 (LINEAR),e,70.6249,34.9944,99.9901,189.1060,0.0003790,0.96409620,0.7685,08/27.0/2011,2000,g  9.5,2.0\n',
 'C/2005 L3 (McNaught)': 'C/2005 L3 (McNaught),h,01/16.9856/2008,139.4260,288.8090,47.2003,1.001314,5.591441,2000,4.0,4.0\n',
 'C/2005 S4 (McNaught)': 'C/2005 S4 (McNaught),h,07/20.8998/2007,107.9433,318.3273,31.6694,1.000613,5.857776,2000,5.0,4.0\n',
 'C/2006 OF2 (Broughton)': 'C/2006 OF2 (Broughton),h,09/16.0991/2008,30.1321,318.4677,95.7051,1.002195,2.432721,2000,5.5,4.0\n',
 'C/2006 Q1 (McNaught)': 'C/2006 Q1 (McNaught),e,59.0548,199.5707,344.2629,1600,0.0000154,0.99827535,0.0000,07/03.4464/2008,2000,g  5.0,4.0\n',
 'C/2006 S3 (LONEOS)': 'C/2006 S3 (LONEOS),h,04/16.5055/2012,166.0327,38.3695,140.1481,1.002835,5.130878,2000,2.0,4.0\n',
 'C/2006 W3 (Christensen)': 'C/2006 W3 (Christensen),h,07/06.6733/2009,127.0666,113.6023,133.5608,1.000162,3.127664,2000,5.0,4.0\n',
 'C/2007 B2 (Skiff)': 'C/2007 B2 (Skiff),e,27.5025,14.8031,206.1664,614.9514,0.0000646,0.99515340,0.0000,08/20.4383/2008,2000,g  6.0,4.0\n',
 'C/2007 D1 (LINEAR)': 'C/2007 D1 (LINEAR),e,41.5372,171.0798,339.8877,1369,0.0000195,0.99358624,0.0000,06/13.4559/2007,2000,g  3.5,4.0\n',
 'C/2007 G1 (LINEAR)': 'C/2007 G1 (LINEAR),h,11/16.0527/2008,88.2903,79.0251,223.9881,1.001158,2.647890,2000,5.5,4.0\n',
 'C/2007 M1 (McNaught)': 'C/2007 M1 (McNaught),e,139.7160,326.8371,52.7831,3685,0.0000044,0.99797095,0.0000,08/14.0388/2008,2000,g  6.0,4.0\n',
 'C/2007 N3 (Lulin)': 'C/2007 N3 (Lulin),e,178.3738,338.5647,136.8044,2668,0.0000072,0.99954658,0.0000,01/10.4236/2009,2000,g  6.5,4.0\n',
 'C/2007 Q3 (Siding Spring)': 'C/2007 Q3 (Siding Spring),e,65.6541,149.3919,2.0403,6182,0.0000020,0.99963601,0.0000,10/07.1312/2009,2000,g  4.5,4.0\n',
 'C/2007 S2 (Lemmon)': 'C/2007 S2 (Lemmon),e,16.8576,296.1425,210.3110,12.50718,0.0222826,0.55616012,24.0344,08/27.0/2011,2000,g  6.5,4.0\n',
 'C/2007 VO53 (Spacewatch)': 'C/2007 VO53 (Spacewatch),h,04/26.7492/2010,86.9948,59.7200,75.0574,1.000448,4.843071,2000,7.0,4.0\n',
 'C/2008 E1 (Catalina)': 'C/2008 E1 (Catalina),e,35.0464,189.0020,270.0700,10.73902,0.0280064,0.55040271,31.0530,08/27.0/2011,2000,g  7.0,4.0\n',
 'C/2008 E3 (Garradd)': 'C/2008 E3 (Garradd),e,105.0655,105.7252,218.1842,5424,0.0000025,0.99898000,0.0000,08/02.9693/2008,2000,g  6.0,4.0\n',
 'C/2008 FK75 (Lemmon-Siding Spring)': 'C/2008 FK75 (Lemmon-Siding Spring),h,09/29.4203/2010,61.1760,218.2694,80.4480,1.002159,4.511401,2000,5.0,4.0\n',
 'C/2008 N1 (Holmes)': 'C/2008 N1 (Holmes),e,115.5130,357.4680,100.7955,1371,0.0000194,0.99797152,0.0000,09/26.0151/2009,2000,g  9.0,4.0\n',
 'C/2008 P1 (Garradd)': 'C/2008 P1 (Garradd),h,07/23.1896/2009,64.3138,357.6850,11.9327,1.001158,3.899003,2000,7.0,4.0\n',
 'C/2008 S3 (Boattini)': 'C/2008 S3 (Boattini),h,06/07.9285/2011,162.7053,54.9453,40.0008,1.000832,8.017927,2000,4.0,4.0\n',
 'C/2008 T2 (Cardinal)': 'C/2008 T2 (Cardinal),e,56.3262,309.6748,215.8530,3966,0.0000039,0.99969691,0.0000,06/13.0737/2009,2000,g  6.0,4.0\n',
 'C/2009 F2 (McNaught)': 'C/2009 F2 (McNaught),e,59.3806,214.0587,336.2858,335.3087,0.0001605,0.98248454,0.0000,11/13.5385/2009,2000,g  6.0,4.0\n',
 'C/2009 F4 (McNaught)': 'C/2009 F4 (McNaught),h,12/31.8631/2011,79.3468,53.5823,260.3818,1.001923,5.454745,2000,3.0,4.0\n',
 'C/2009 F6 (Yi-SWAN)': 'C/2009 F6 (Yi-SWAN),e,85.7461,278.6126,129.7646,485.2365,0.0000922,0.99737419,0.0000,05/07.3513/2009,2000,g  6.0,4.0\n',
 'C/2009 K2 (Catalina)': 'C/2009 K2 (Catalina),e,66.8079,123.8066,147.7370,1398,0.0000189,0.99767726,0.0000,02/07.5525/2010,2000,g 10.0,4.0\n',
 'C/2009 K3 (Beshore)': 'C/2009 K3 (Beshore),p,01/09.266/2011,146.680,251.413,3.90156,0.032,2000,8.5,4.0\n',
 'C/2009 K5 (McNaught)': 'C/2009 K5 (McNaught),h,04/29.9352/2010,103.8814,257.8580,66.1687,1.000501,1.422654,2000,7.5,4.0\n',
 'C/2009 O4 (Hill)': 'C/2009 O4 (Hill),h,01/01.4468/2010,95.8224,172.9463,223.7815,1.001307,2.564966,2000,10.0,4.0\n',
 'C/2009 P1 (Garradd)': 'C/2009 P1 (Garradd),h,12/23.6680/2011,106.1777,325.9970,90.7453,1.001025,1.550534,2000,4.0,4.0\n',
 'C/2009 P2 (Boattini)': 'C/2009 P2 (Boattini),h,02/12.5533/2010,163.4589,60.4685,76.3066,1.001011,6.546180,2000,6.0,4.0\n',
 'C/2009 R1 (McNaught)': 'C/2009 R1 (McNaught),h,07/02.6780/2010,77.0340,322.5928,130.6897,1.000286,0.404744,2000,8.0,4.0\n',
 'C/2009 S3 (Lemmon)': 'C/2009 S3 (Lemmon),h,12/11.0596/2011,60.3848,225.1323,129.7449,1.001461,6.474651,2000,6.5,4.0\n',
 'C/2009 T1 (McNaught)': 'C/2009 T1 (McNaught),e,89.8876,54.4151,282.5782,2311,0.0000089,0.99730760,0.0000,10/08.5791/2009,2000,g  6.5,4.0\n',
 'C/2009 U5 (Grauer)': 'C/2009 U5 (Grauer),h,06/22.2144/2010,25.4604,121.1493,23.8032,1.000815,6.093909,2000,7.0,4.0\n',
 'C/2009 UG89 (Lemmon)': 'C/2009 UG89 (Lemmon),h,12/16.3075/2010,130.1008,321.0166,60.6632,1.008464,3.931187,2000,9.0,4.0\n',
 'C/2009 W2 (Boattini)': 'C/2009 W2 (Boattini),e,164.4886,199.5885,121.4256,3753,0.0000043,0.99815882,0.0000,05/02.7782/2010,2000,g  7.0,4.0\n',
 'C/2009 Y1 (Catalina)': 'C/2009 Y1 (Catalina),e,107.3051,160.2808,127.3946,382.2679,0.0001319,0.99340633,0.0000,01/28.9040/2011,2000,g  9.0,4.0\n',
 'C/2010 A4 (Siding Spring)': 'C/2010 A4 (Siding Spring),e,96.7169,346.6930,271.7242,292.3125,0.0001972,0.99063128,0.0000,10/08.8566/2010,2000,g 12.5,4.0\n',
 'C/2010 B1 (Cardinal)': 'C/2010 B1 (Cardinal),e,101.9762,277.2133,211.5347,2748,0.0000068,0.99892945,0.0000,02/07.1069/2011,2000,g  7.5,4.0\n',
 'C/2010 D3 (WISE)': 'C/2010 D3 (WISE),e,76.4048,255.2298,304.6490,17417,0.0000004,0.99975615,0.0000,09/03.9576/2010,2000,g  9.0,4.0\n',
 'C/2010 D4 (WISE)': 'C/2010 D4 (WISE),e,105.6624,266.8183,44.4865,64.55042,0.0019004,0.88926916,1.6710,08/27.0/2011,2000,g  6.5,4.0\n',
 'C/2010 F1 (Boattini)': 'C/2010 F1 (Boattini),e,64.9193,344.3846,127.4879,68.96634,0.0017209,0.94800095,1.1262,08/27.0/2011,2000,g  9.5,4.0\n',
 'C/2010 F3 (Scotti)': 'C/2010 F3 (Scotti),e,4.6473,157.4037,31.2029,62.47890,0.0019957,0.91283684,0.7744,08/27.0/2011,2000,g  8.5,4.0\n',
 'C/2010 FB87 (WISE-Garradd)': 'C/2010 FB87 (WISE-Garradd),e,107.6242,89.9033,265.0272,296.2225,0.0001933,0.99040300,0.0000,11/07.3821/2010,2000,g 10.0,4.0\n',
 'C/2010 G2 (Hill)': 'C/2010 G2 (Hill),e,103.7453,246.7811,137.4255,96.32998,0.0010425,0.97943746,0.0000,09/02.0509/2011,2000,g  8.0,4.0\n',
 'C/2010 G3 (WISE)': 'C/2010 G3 (WISE),e,108.2605,313.7358,75.2124,3897,0.0000041,0.99874071,0.0000,04/11.1777/2010,2000,g  8.5,4.0\n',
 'C/2010 J2 (McNaught)': 'C/2010 J2 (McNaught),e,125.8556,311.8052,4.6473,10137,0.0000010,0.99966582,0.0000,06/03.9816/2010,2000,g  9.0,4.0\n',
 'C/2010 KW7 (WISE)': 'C/2010 KW7 (WISE),e,147.0644,104.7686,332.3297,99.29956,0.0009961,0.97410921,0.0000,10/11.3735/2010,2000,g 15.0,2.0\n',
 'C/2010 L3 (Catalina)': 'C/2010 L3 (Catalina),h,11/10.2128/2010,102.6355,38.2697,121.7594,1.000334,9.882742,2000,4.5,4.0\n',
 'C/2010 M1 (Gibbs)': 'C/2010 M1 (Gibbs),p,02/07.840/2012,78.373,265.318,2.29869,82.150,2000,9.0,4.0\n',
 'C/2010 R1 (LINEAR)': 'C/2010 R1 (LINEAR),h,05/19.1371/2012,156.9343,343.6338,114.5010,1.003249,5.621679,2000,6.0,4.0\n',
 'C/2010 S1 (LINEAR)': 'C/2010 S1 (LINEAR),h,05/20.2496/2013,125.3364,93.4405,118.5916,1.000073,5.901726,2000,3.5,4.0\n',
